[{"OBJECT_NAME":"KUIPER-00174","OBJECT_ID":"2025-217AB","EPOCH":"2026-03-09T02:11:54.435264","MEAN_MOTION":14.79931155,"ECCENTRICITY":0.00015415,"INCLINATION":51.905,"RA_OF_ASC_NODE":30.7651,"ARG_OF_PERICENTER":78.6806,"MEAN_ANOMALY":281.433,"EPHEMERIS_TYPE":0,"CLASSIFICATION_TYPE":"U","NORAD_CAT_ID":65787,"ELEMENT_SET_NO":999,"REV_AT_EPOCH":2499,"BSTAR":0.00070468891,"MEAN_MOTION_DOT":5.155e-5,"MEAN_MOTION_DDOT":0},{"OBJECT_NAME":"SL-14 R\/B","OBJECT_ID":"1986-074B","EPOCH":"2026-03-09T21:36:30.309984","MEAN_MOTION":14.85367529,"ECCENTRICITY":0.00173438,"INCLINATION":82.5166,"RA_OF_ASC_NODE":202.2228,"ARG_OF_PERICENTER":185.2787,"MEAN_ANOMALY":295.3986,"EPHEMERIS_TYPE":0,"CLASSIFICATION_TYPE":"U","NORAD_CAT_ID":16987,"ELEMENT_SET_NO":999,"REV_AT_EPOCH":10999,"BSTAR":8.4650841e-5,"MEAN_MOTION_DOT":7.54e-6,"MEAN_MOTION_DDOT":0}]
